     2.100          NAVIGATION                              RINEX VERSION / TYPE
fic2rin                                 09/24/2009 01:38:37 PGM / RUN BY / DATE
                                                            END OF HEADER
10 09  9 23  4  0  0.0 -.241678208113D-04 -.795807864051D-12  .000000000000D+00
     .123000000000D+03  .818125000000D+02  .491770484215D-08  .126960216677D+01
     .448524951935D-05  .863683538046D-02  .442564487457D-05  .515367436981D+04
     .273600000000D+06 -.353902578354D-07 -.145622807589D+01  .176951289177D-06
     .956307222377D+00  .292562500000D+03  .624646579129D+00 -.848321050263D-08
     .425017703693D-10  .100000000000D+01  .155000000000D+04  .000000000000D+00
     .240000000000D+01  .000000000000D+00 -.279396772385D-08  .123000000000D+03
     .266406000000D+06  .400000000000D+01
11 09  9 23  4  0  0.0 -.209030695260D-04 -.170530256582D-11  .000000000000D+00
     .100000000000D+03  .191562500000D+02  .604382317807D-08 -.160272463237D+01
     .841915607452D-06  .988671730738D-02  .960007309914D-05  .515370006752D+04
     .273600000000D+06  .150874257088D-06 -.274751692063D+01 -.145286321640D-06
     .889459629861D+00  .150843750000D+03  .728472060814D+00 -.854428447517D-08
    -.159292349451D-09  .100000000000D+01  .155000000000D+04  .000000000000D+00
     .340000000000D+01  .000000000000D+00 -.116415321827D-07  .100000000000D+03
     .266406000000D+06  .400000000000D+01
12 09  9 23  4  0  0.0 -.214876141399D-03  .568434188608D-11  .000000000000D+00
     .660000000000D+02  .300000000000D+01  .440054044303D-08 -.142786989754D+01
     .232830643654D-06  .307629059535D-02  .690482556820D-05  .515356436920D+04
     .273600000000D+06 -.875443220139D-07  .166808306937D+01  .763684511185D-07
     .967781197549D+00  .250437500000D+03 -.589263487178D+00 -.796497463031D-08
     .461447792581D-09  .100000000000D+01  .155000000000D+04  .000000000000D+00
     .240000000000D+01  .000000000000D+00 -.116415321827D-07  .660000000000D+02
     .266406000000D+06  .400000000000D+01
13 09  9 23  4  0  0.0  .304938293993D-03  .454747350886D-12  .000000000000D+00
     .980000000000D+02 -.506875000000D+02  .390301971929D-08  .837628300409D+00
    -.279955565929D-05  .400269113015D-02  .429339706898D-05  .515364837456D+04
     .273600000000D+06 -.447034835815D-07 -.371155232814D+00 -.111758708954D-07
     .994554693298D+00  .315093750000D+03  .166036534410D+01 -.794068790438D-08
    -.315727437029D-09  .100000000000D+01  .155000000000D+04  .000000000000D+00
     .340000000000D+01  .000000000000D+00 -.111758708954D-07  .980000000000D+02
     .266406000000D+06  .400000000000D+01
14 09  9 23  4  0  0.0 -.472143292427D-04  .511590769747D-11  .000000000000D+00
     .910000000000D+02 -.579375000000D+02  .412910056504D-08  .806383465771D+00
    -.291690230370D-05  .494449411053D-02  .415369868279D-05  .515365037346D+04
     .273600000000D+06 -.428408384323D-07 -.391392875793D+00  .800937414169D-07
     .987966750404D+00  .315781250000D+03 -.215338701598D+01 -.815605401810D-08
    -.377515725045D-09  .100000000000D+01  .155000000000D+04  .000000000000D+00
     .240000000000D+01  .000000000000D+00 -.884756445885D-08  .910000000000D+02
     .266406000000D+06  .400000000000D+01
16 09  9 23  4  0  0.0  .992417335510D-05 -.397903932026D-11  .000000000000D+00
     .840000000000D+02 -.578125000000D+01  .437589655937D-08  .243994145050D+01
    -.236555933952D-06  .528167583980D-02  .701658427715D-05  .515362046814D+04
     .273600000000D+06  .745058059692D-08  .168520530981D+01  .670552253723D-07
     .969157541599D+00  .250000000000D+03 -.275171626940D+00 -.787139930395D-08
     .358229207399D-09  .100000000000D+01  .155000000000D+04  .000000000000D+00
     .240000000000D+01  .000000000000D+00 -.977888703346D-08  .840000000000D+02
     .266406000000D+06  .400000000000D+01
17 09  9 23  4  0  0.0  .871745869517D-04  .318323145621D-11  .000000000000D+00
     .840000000000D+02 -.324375000000D+02  .471662503779D-08  .130708569017D+01
    -.182725489140D-05  .466457079165D-02  .697560608387D-05  .515373234749D+04
     .273600000000D+06 -.353902578354D-07  .272808357099D+01  .558793544769D-07
     .960116748831D+00  .242656250000D+03 -.264606860621D+01 -.811212361680D-08
    -.255367779950D-09  .100000000000D+01  .155000000000D+04  .000000000000D+00
     .240000000000D+01  .000000000000D+00 -.102445483208D-07  .840000000000D+02
     .266406000000D+06  .400000000000D+01
18 09  9 23  4  0  0.0  .148671679199D-04  .284217094304D-11  .000000000000D+00
     .590000000000D+02  .967812500000D+02  .506878256371D-08  .263993957194D+01
     .486150383949D-05  .109129576012D-01  .366941094398D-05  .515363407516D+04
     .273600000000D+06 -.167638063431D-07 -.145259160387D+01 -.191852450371D-06
     .940334209426D+00  .299250000000D+03 -.237465150001D+01 -.832963267692D-08
     .148934775160D-09  .100000000000D+01  .155000000000D+04  .000000000000D+00
     .240000000000D+01  .000000000000D+00 -.107102096081D-07  .590000000000D+02
     .266406000000D+06  .400000000000D+01
19 09  9 23  4  0  0.0  .957679003477D-05 -.170530256582D-11  .000000000000D+00
     .123000000000D+03 -.296250000000D+02  .475519807309D-08  .647301985354D+00
    -.151805579662D-05  .584046205040D-02  .713206827641D-05  .515364839172D+04
     .273600000000D+06  .171363353729D-06  .278378214340D+01 -.242143869400D-07
     .957843100570D+00  .239468750000D+03 -.247278557059D+00 -.808997983728D-08
    -.216437586923D-09  .100000000000D+01  .155000000000D+04  .000000000000D+00
     .240000000000D+01  .000000000000D+00 -.149011611938D-07  .123000000000D+03
     .266406000000D+06  .400000000000D+01
20 09  9 23  4  0  0.0  .716410577297D-04 -.909494701773D-12  .000000000000D+00
     .370000000000D+02  .100187500000D+03  .513485674454D-08  .282339959029D+01
     .512227416039D-05  .384406710509D-02  .470504164696D-05  .515377168465D+04
     .273600000000D+06  .204890966415D-07 -.150650326720D+01 -.126659870148D-06
     .940057229294D+00  .275156250000D+03  .131609205608D+01 -.843213694664D-08
     .145006040084D-09  .100000000000D+01  .155000000000D+04  .000000000000D+00
     .240000000000D+01  .000000000000D+00 -.745058059692D-08  .370000000000D+02
     .266406000000D+06  .400000000000D+01
21 09  9 23  4  0  0.0 -.108154490590D-04 -.227373675443D-11  .000000000000D+00
     .980000000000D+02  .636562500000D+02  .491413326480D-08 -.241260217557D+01
     .290200114250D-05  .155671068933D-01  .106468796730D-04  .515375933647D+04
     .273600000000D+06  .154599547386D-06 -.251090336991D+01 -.309199094772D-06
     .933784978270D+00  .160875000000D+03 -.255670737740D+01 -.796783189218D-08
     .242867259253D-10  .100000000000D+01  .155000000000D+04  .000000000000D+00
     .340000000000D+01  .000000000000D+00 -.121071934700D-07  .980000000000D+02
     .266406000000D+06  .400000000000D+01
23 09  9 23  4  0  0.0  .388301443309D-03 -.341060513165D-12  .000000000000D+00
     .900000000000D+02 -.502187500000D+02  .450947355196D-08  .154459338080D+00
    -.286288559437D-05  .639328360558D-02  .341422855854D-05  .515377052879D+04
     .273600000000D+06  .670552253723D-07 -.425969730183D+00  .353902578354D-07
     .969877368977D+00  .316875000000D+03  .297208569626D+01 -.831106047474D-08
    -.347871633107D-09  .100000000000D+01  .155000000000D+04  .000000000000D+00
     .240000000000D+01  .000000000000D+00 -.200234353542D-07  .900000000000D+02
     .266406000000D+06  .400000000000D+01
25 09  9 23  4  0  0.0  .604879111052D-03  .144382283906D-10  .000000000000D+00
     .630000000000D+02 -.708125000000D+02  .392980654936D-08  .307635146362D+01
    -.358559191227D-05  .112290764228D-01  .899285078049D-05  .515364587021D+04
     .273600000000D+06  .875443220139D-07  .520982349052D+00  .502914190292D-07
     .971199078889D+00  .211906250000D+03 -.121358611773D+01 -.752567061725D-08
    -.514307137242D-10  .100000000000D+01  .155000000000D+04  .000000000000D+00
     .485000000000D+01  .000000000000D+00 -.745058059692D-08  .630000000000D+02
     .266406000000D+06  .400000000000D+01
26 09  9 23  4  0  0.0  .620209611952D-04 -.113686837722D-11  .000000000000D+00
     .530000000000D+02 -.720937500000D+02  .386373236853D-08 -.202743018043D+01
    -.359676778316D-05  .196959836176D-01  .390596687794D-05  .515361253166D+04
     .273600000000D+06  .225380063057D-06 -.373752027975D+00  .372529029846D-08
     .992357529320D+00  .315375000000D+03  .102886018224D+01 -.773817946909D-08
    -.158220876249D-09  .100000000000D+01  .155000000000D+04  .000000000000D+00
     .240000000000D+01  .000000000000D+00 -.605359673500D-08  .530000000000D+02
     .266406000000D+06  .400000000000D+01
27 09  9 23  4  0  0.0  .850721262395D-04  .318323145621D-11  .000000000000D+00
     .118000000000D+03 -.631875000000D+02  .401802450971D-08  .908612513233D+00
    -.357627868652D-05  .213576548267D-01  .102780759335D-04  .515374145126D+04
     .273600000000D+06 -.277534127235D-06  .557753927273D+00 -.258907675743D-06
     .975950904524D+00  .201000000000D+03 -.154375936096D+01 -.806105006081D-08
    -.115004790411D-09  .100000000000D+01  .155000000000D+04  .000000000000D+00
     .340000000000D+01  .000000000000D+00 -.419095158577D-08  .118000000000D+03
     .266406000000D+06  .400000000000D+01
28 09  9 23  4  0  0.0 -.261198729277D-04  .113686837722D-12  .000000000000D+00
     .270000000000D+02 -.228125000000D+01  .438839708007D-08  .186196328350D+01
    -.309199094772D-06  .151079921052D-01  .684708356857D-05  .515365068245D+04
     .273600000000D+06 -.180676579475D-06  .169324612346D+01 -.394880771637D-06
     .967370151215D+00  .251500000000D+03 -.201721779656D+01 -.794283085079D-08
     .411802867528D-09  .100000000000D+01  .155000000000D+04  .000000000000D+00
     .240000000000D+01  .000000000000D+00 -.102445483208D-07  .270000000000D+02
     .266406000000D+06  .400000000000D+01
